$$SOE
2459580.500000000, A.D. 2022-Jan-01 00:00:00.0000, 4.531070805737680E+08, 2.087892858598055E+08, 4.435260394021457E+07,
2459587.500000000, A.D. 2022-Jan-08 00:00:00.0000, 4.489080372405274E+08, 2.172419531176886E+08, 4.642334347955355E+07,
2459594.500000000, A.D. 2022-Jan-15 00:00:00.0000, 4.445355628095566E+08, 2.256105647780247E+08, 4.847613182462841E+07,
2459601.500000000, A.D. 2022-Jan-22 00:00:00.0000, 4.399913450420597E+08, 2.338918862540394E+08, 5.051017468586387E+07,
2459608.500000000, A.D. 2022-Jan-29 00:00:00.0000, 4.352771314436900E+08, 2.420827150241574E+08, 5.252468425461951E+07,
2459615.500000000, A.D. 2022-Feb-05 00:00:00.0000, 4.303947266231276E+08, 2.501798807960672E+08, 5.451887955500707E+07,
2459622.500000000, A.D. 2022-Feb-12 00:00:00.0000, 4.253459918207090E+08, 2.581802446010692E+08, 5.649198651063174E+07,
2459629.500000000, A.D. 2022-Feb-19 00:00:00.0000, 4.201328452811431E+08, 2.660806991872064E+08, 5.844323804103704E+07,
2459636.500000000, A.D. 2022-Feb-26 00:00:00.0000, 4.147572621580221E+08, 2.738781699886205E+08, 6.037187424886034E+07,
2459643.500000000, A.D. 2022-Mar-05 00:00:00.0000, 4.092212741090963E+08, 2.815696160548066E+08, 6.227714263252947E+07,
2459650.500000000, A.D. 2022-Mar-12 00:00:00.0000, 4.035269688039222E+08, 2.891520308745223E+08, 6.415829829858278E+07,
2459657.500000000, A.D. 2022-Mar-19 00:00:00.0000, 3.976764894146761E+08, 2.966224431228534E+08, 6.601460416915277E+07,
2459664.500000000, A.D. 2022-Mar-26 00:00:00.0000, 3.916720341122220E+08, 3.039779173260138E+08, 6.784533118185487E+07,
2459671.500000000, A.D. 2022-Apr-02 00:00:00.0000, 3.855158556349680E+08, 3.112155543886655E+08, 6.964975847113453E+07,
2459678.500000000, A.D. 2022-Apr-09 00:00:00.0000, 3.792102612025336E+08, 3.183324919892830E+08, 7.142717350644450E+07,
2459685.500000000, A.D. 2022-Apr-16 00:00:00.0000, 3.727576131315154E+08, 3.253259054978302E+08, 7.317687220781729E+07,
2459692.500000000, A.D. 2022-Apr-23 00:00:00.0000, 3.661603288834646E+08, 3.321930104993042E+08, 7.489815924336009E+07,
2459699.500000000, A.D. 2022-Apr-30 00:00:00.0000, 3.594208786730285E+08, 3.389310646785614E+08, 7.659034849657631E+07,
2459706.500000000, A.D. 2022-May-07 00:00:00.0000, 3.525417836996722E+08, 3.455373670948652E+08, 7.825276326188989E+07,
2459713.500000000, A.D. 2022-May-14 00:00:00.0000, 3.455256163932048E+08, 3.520092578842022E+08, 7.988473628925787E+07,
2459720.500000000, A.D. 2022-May-21 00:00:00.0000, 3.383750006410024E+08, 3.583441191474839E+08, 8.148560992590401E+07,
2459727.500000000, A.D. 2022-May-28 00:00:00.0000, 3.310926115171898E+08, 3.645393760661217E+08, 8.305473632074708E+07,
2459734.500000000, A.D. 2022-Jun-04 00:00:00.0000, 3.236811747904220E+08, 3.705924979326462E+08, 8.459147764068227E+07,
2459741.500000000, A.D. 2022-Jun-11 00:00:00.0000, 3.161434663545889E+08, 3.765009990990224E+08, 8.609520628578737E+07,
2459748.500000000, A.D. 2022-Jun-18 00:00:00.0000, 3.084823116208155E+08, 3.822624398564357E+08, 8.756530510118060E+07,
2459755.500000000, A.D. 2022-Jun-25 00:00:00.0000, 3.007005848999129E+08, 3.878744272138815E+08, 8.900116758035655E+07,
2459762.500000000, A.D. 2022-Jul-02 00:00:00.0000, 2.928012089091721E+08, 3.933346155103444E+08, 9.040219804262440E+07,
2459769.500000000, A.D. 2022-Jul-09 00:00:00.0000, 2.847871547939442E+08, 3.986407070379500E+08, 9.176781176363869E+07,
2459776.500000000, A.D. 2022-Jul-16 00:00:00.0000, 2.766614426092830E+08, 4.037904537583389E+08, 9.309743515261339E+07,
2459783.500000000, A.D. 2022-Jul-23 00:00:00.0000, 2.684271400621593E+08, 4.087816601876822E+08, 9.439050618351611E+07,
2459790.500000000, A.D. 2022-Jul-30 00:00:00.0000, 2.600873595955044E+08, 4.136121840956125E+08, 9.564647479804891E+07,
2459797.500000000, A.D. 2022-Aug-06 00:00:00.0000, 2.516452574120714E+08, 4.182799356675869E+08, 9.686480300379336E+07,
2459804.500000000, A.D. 2022-Aug-13 00:00:00.0000, 2.431040336145446E+08, 4.227828778851436E+08, 9.804496496826771E+07,
2459811.500000000, A.D. 2022-Aug-20 00:00:00.0000, 2.344669318912474E+08, 4.271190276206961E+08, 9.918644721193138E+07,
2459818.500000000, A.D. 2022-Aug-27 00:00:00.0000, 2.257372388150078E+08, 4.312864567211146E+08, 1.002887488351625E+08,
2459825.500000000, A.D. 2022-Sep-03 00:00:00.0000, 2.169182830032324E+08, 4.352832929701192E+08, 1.013513817480436E+08,
2459832.500000000, A.D. 2022-Sep-10 00:00:00.0000, 2.080134342294466E+08, 4.391077209533703E+08, 1.023738708969593E+08,
2459839.500000000, A.D. 2022-Sep-17 00:00:00.0000, 1.990261025155478E+08, 4.427579828240612E+08, 1.033557544851680E+08,
2459846.500000000, A.D. 2022-Sep-24 00:00:00.0000, 1.899597372646715E+08, 4.462323789175482E+08, 1.042965841774567E+08,
2459853.500000000, A.D. 2022-Oct-01 00:00:00.0000, 1.808178266738874E+08, 4.495292681923072E+08, 1.051959252648069E+08,
2459860.500000000, A.D. 2022-Oct-08 00:00:00.0000, 1.716038978334518E+08, 4.526470690192965E+08, 1.060533567942230E+08,
2459867.500000000, A.D. 2022-Oct-15 00:00:00.0000, 1.623215165808511E+08, 4.555842615184970E+08, 1.068684718468583E+08,
2459874.500000000, A.D. 2022-Oct-22 00:00:00.0000, 1.529742849271154E+08, 4.583393897565942E+08, 1.076408780259143E+08,
2459881.500000000, A.D. 2022-Oct-29 00:00:00.0000, 1.435658385508683E+08, 4.609110612118734E+08, 1.083701977128655E+08,
2459888.500000000, A.D. 2022-Nov-05 00:00:00.0000, 1.340998464593812E+08, 4.632979462490437E+08, 1.090560681238831E+08,
2459895.500000000, A.D. 2022-Nov-12 00:00:00.0000, 1.245800108523524E+08, 4.654987788706015E+08, 1.096981414498750E+08,
2459902.500000000, A.D. 2022-Nov-19 00:00:00.0000, 1.150100664684378E+08, 4.675123577892767E+08, 1.102960850675540E+08,
2459909.500000000, A.D. 2022-Nov-26 00:00:00.0000, 1.053937796760661E+08, 4.693375474233546E+08, 1.108495817646307E+08,
2459916.500000000, A.D. 2022-Dec-03 00:00:00.0000, 9.573494747406553E+07, 4.709732788025284E+08, 1.113583299626223E+08,
2459923.500000000, A.D. 2022-Dec-10 00:00:00.0000, 8.603739644712256E+07, 4.724185504019980E+08, 1.118220439342379E+08,
2459930.500000000, A.D. 2022-Dec-17 00:00:00.0000, 7.630498170013398E+07, 4.736724288787248E+08, 1.122404540106035E+08,
2459937.500000000, A.D. 2022-Dec-24 00:00:00.0000, 6.654158587994660E+07, 4.747340496429375E+08, 1.126133067625232E+08,
2459944.500000000, A.D. 2022-Dec-31 00:00:00.0000, 5.675111864101530E+07, 4.756026173716780E+08, 1.129403651315529E+08,
2459951.500000000, A.D. 2023-Jan-07 00:00:00.0000, 4.693751667681336E+07, 4.762774074268008E+08, 1.132214085784205E+08,
2459958.500000000, A.D. 2023-Jan-14 00:00:00.0000, 3.710474235012315E+07, 4.767577686739823E+08, 1.134562334698751E+08,
2459965.500000000, A.D. 2023-Jan-21 00:00:00.0000, 2.725678027699130E+07, 4.770431245277026E+08, 1.136446535032004E+08,
2459972.500000000, A.D. 2023-Jan-28 00:00:00.0000, 1.739763553023381E+07, 4.771329720260251E+08, 1.137864998161501E+08,
2459979.500000000, A.D. 2023-Feb-04 00:00:00.0000, 7.531333253820205E+06, 4.770268819643454E+08, 1.138816210497053E+08,
2459986.500000000, A.D. 2023-Feb-11 00:00:00.0000, -2.338082106351316E+06, 4.767244998939060E+08, 1.139298835124849E+08,
2459993.500000000, A.D. 2023-Feb-18 00:00:00.0000, -1.220654801867963E+07, 4.762255471605534E+08, 1.139311713850929E+08,
2460000.500000000, A.D. 2023-Feb-25 00:00:00.0000, -2.206998526660444E+07, 4.755298218210810E+08, 1.138853869270198E+08,
2460007.500000000, A.D. 2023-Mar-04 00:00:00.0000, -3.192429943177347E+07, 4.746371994553376E+08, 1.137924506782876E+08,
2460014.500000000, A.D. 2023-Mar-11 00:00:00.0000, -4.176538243084959E+07, 4.735476338739572E+08, 1.136523016532515E+08,
2460021.500000000, A.D. 2023-Mar-18 00:00:00.0000, -5.158911405846102E+07, 4.722611576713282E+08, 1.134648975180724E+08,
2460028.500000000, A.D. 2023-Mar-25 00:00:00.0000, -6.139136333242658E+07, 4.707778825752076E+08, 1.132302147289935E+08,
2460035.500000000, A.D. 2023-Apr-01 00:00:00.0000, -7.116798921646112E+07, 4.690979999845853E+08, 1.129482486240921E+08,
2460042.500000000, A.D. 2023-Apr-08 00:00:00.0000, -8.091484133588040E+07, 4.672217829193214E+08, 1.126190136246331E+08,
2460049.500000000, A.D. 2023-Apr-15 00:00:00.0000, -9.062776302296051E+07, 4.651495882736514E+08, 1.122425436694321E+08,
2460056.500000000, A.D. 2023-Apr-22 00:00:00.0000, -1.003025948833084E+08, 4.628818563180135E+08, 1.118188924659503E+08,
2460063.500000000, A.D. 2023-Apr-29 00:00:00.0000, -1.099351761507758E+08, 4.604191097011173E+08, 1.113481334917092E+08,
2460070.500000000, A.D. 2023-May-06 00:00:00.0000, -1.195213455916207E+08, 4.577619537352505E+08, 1.108303600540086E+08,
2460077.500000000, A.D. 2023-May-13 00:00:00.0000, -1.290569429334393E+08, 4.549110770712924E+08, 1.102656854244875E+08,
2460084.500000000, A.D. 2023-May-20 00:00:00.0000, -1.385378105837570E+08, 4.518672522710540E+08, 1.096542429863449E+08,
2460091.500000000, A.D. 2023-May-27 00:00:00.0000, -1.479597954441198E+08, 4.486313362459985E+08, 1.089961863733421E+08,
2460098.500000000, A.D. 2023-Jun-03 00:00:00.0000, -1.573187507615443E+08, 4.452042705866971E+08, 1.082916895966291E+08,
2460105.500000000, A.D. 2023-Jun-10 00:00:00.0000, -1.666105379930588E+08, 4.415870817675380E+08, 1.075409471552675E+08,
2460112.500000000, A.D. 2023-Jun-17 00:00:00.0000, -1.758310285938390E+08, 4.377808811648096E+08, 1.067441741165767E+08,
2460119.500000000, A.D. 2023-Jun-24 00:00:00.0000, -1.849761054085556E+08, 4.337868649419659E+08, 1.059016061407611E+08,
2460126.500000000, A.D. 2023-Jul-01 00:00:00.0000, -1.940416634126638E+08, 4.296063146286019E+08, 1.050134994937158E+08,
2460133.500000000, A.D. 2023-Jul-08 00:00:00.0000, -2.030236114775168E+08, 4.252405992146626E+08, 1.040801312685122E+08,
2460140.500000000, A.D. 2023-Jul-15 00:00:00.0000, -2.119178764342913E+08, 4.206911759292153E+08, 1.031017997008768E+08,
2460147.500000000, A.D. 2023-Jul-22 00:00:00.0000, -2.207204059135468E+08, 4.159595886657015E+08, 1.020788241699123E+08,
2460154.500000000, A.D. 2023-Jul-29 00:00:00.0000, -2.294271694742000E+08, 4.110474671965128E+08, 1.010115450961125E+08,
$$EOE